KUIPER-00117            
1 65949U 25228C   25300.16710326  .00016196  00000+0  48293-3 0  9999
2 65949  51.8803 244.9055 0006111 178.0773 182.0237 15.34786133  3266
KUIPER-00121            
1 65950U 25228D   25300.10717485  .00029707  00000+0  89094-3 0  9994
2 65950  51.8814 245.2560 0005702 196.2535 163.8268 15.34214970  3253
KUIPER-00122            
1 65951U 25228E   25300.10816164  .00024138  00000+0  72994-3 0  9993
2 65951  51.8804 245.2577 0005852 203.7554 156.3162 15.34067062  3250
KUIPER-00123            
1 65952U 25228F   25300.10727703  .00028935  00000+0  87018-3 0  9996
2 65952  51.8801 245.2498 0005492 191.4177 168.6685 15.34143478  3256
KUIPER-00124            
1 65953U 25228G   25300.10857588  .00026508  00000+0  80105-3 0  9996
2 65953  51.8812 245.2630 0005580 206.2997 153.7706 15.34036739  3250
KUIPER-00125            
1 65954U 25228H   25300.10503008  .00031155  00000+0  92684-3 0  9991
2 65954  51.8799 245.2356 0005747 186.9999 173.0907 15.34446150  3251
KUIPER-00126            
1 65955U 25228J   25300.10770152  .00029055  00000+0  87274-3 0  9993
2 65955  51.8807 245.2556 0006086 201.1709 158.9025 15.34175977  3259
KUIPER-00127            
1 65956U 25228K   25300.16739068  .00029126  00000+0  85878-3 0  9998
2 65956  51.8806 244.9081 0005977 179.2147 180.8849 15.34761526  3267
KUIPER-00128            
1 65957U 25228L   25300.10416758  .00026045  00000+0  77476-3 0  9993
2 65957  51.8808 245.2358 0005808 182.4806 177.6152 15.34544398  3258
KUIPER-00129            
1 65958U 25228M   25300.10378537  .00026943  00000+0  80068-3 0  9994
2 65958  51.8808 245.2332 0005925 177.2066 182.8954 15.34555755  3258
KUIPER-00130            
1 65959U 25228N   25300.10593701  .00029083  00000+0  86824-3 0  9991
2 65959  51.8803 245.2414 0005275 193.4064 166.6782 15.34372837  3258
KUIPER-00134            
1 65960U 25228P   25300.10679017  .00028504  00000+0  85432-3 0  9999
2 65960  51.8800 245.2464 0005319 197.7583 162.3217 15.34259195  3251
